{
    "links": {
        "self": "http://www.neowsapp.com/rest/v1/neo/3781967?api_key=iIulBulltgU6a56xZRHN4H3l9WmuAYTsLGpBGhQ2"
    },
    "id": "3781967",
    "neo_reference_id": "3781967",
    "name": "(2017 SO19)",
    "designation": "2017 SO19",
    "nasa_jpl_url": "http://ssd.jpl.nasa.gov/sbdb.cgi?sstr=3781967",
    "absolute_magnitude_h": 24.5,
    "estimated_diameter": {
        "kilometers": {
            "estimated_diameter_min": 0.0334622374,
            "estimated_diameter_max": 0.0748238376
        },
        "meters": {
            "estimated_diameter_min": 33.4622374455,
            "estimated_diameter_max": 74.8238376074
        },
        "miles": {
            "estimated_diameter_min": 0.0207924639,
            "estimated_diameter_max": 0.0464933628
        },
        "feet": {
            "estimated_diameter_min": 109.7842471007,
            "estimated_diameter_max": 245.4850393757
        }
    },
    "is_potentially_hazardous_asteroid": false,
    "close_approach_data": [
        {
            "close_approach_date": "2017-09-18",
            "close_approach_date_full": "2017-Sep-18 17:30",
            "epoch_date_close_approach": 1505755800000,
            "relative_velocity": {
                "kilometers_per_second": "13.3727449817",
                "kilometers_per_hour": "48141.8819342809",
                "miles_per_hour": "29913.4932496647"
            },
            "miss_distance": {
                "astronomical": "0.1136351716",
                "lunar": "44.2040817524",
                "kilometers": "16999579.628444492",
                "miles": "10563048.9660263096"
            },
            "orbiting_body": "Earth"
        }
    ],
    "orbital_data": {
        "orbit_id": "1",
        "orbit_determination_date": "2017-09-30 10:42:08",
        "first_observation_date": "2017-09-25",
        "last_observation_date": "2017-09-30",
        "data_arc_in_days": 5,
        "observations_used": 9,
        "orbit_uncertainty": "9",
        "minimum_orbit_intersection": ".111283",
        "jupiter_tisserand_invariant": "4.042",
        "epoch_osculation": "2458022.5",
        "eccentricity": ".3602152784687849",
        "semi_major_axis": "1.701492705336538",
        "inclination": "22.77437765590918",
        "ascending_node_longitude": "359.4796523022831",
        "orbital_period": "810.6689967315988",
        "perihelion_distance": "1.088589036671131",
        "perihelion_argument": "332.7789102156791",
        "aphelion_distance": "2.314396374001946",
        "perihelion_time": "2457993.261495655499",
        "mean_anomaly": "12.98416691209091",
        "mean_motion": ".444077670974743",
        "equinox": "J2000",
        "orbit_class": {
            "orbit_class_type": "AMO",
            "orbit_class_description": "Near-Earth asteroid orbits similar to that of 1221 Amor",
            "orbit_class_range": "1.017 AU < q (perihelion) < 1.3 AU"
        }
    },
    "is_sentry_object": false
}